[{"OBJECT_NAME":"KINEIS-4A","OBJECT_ID":"2025-056D","EPOCH":"2026-03-09T22:34:56.006400","MEAN_MOTION":14.72324444,"ECCENTRICITY":0.00017943,"INCLINATION":97.9939,"RA_OF_ASC_NODE":195.3129,"ARG_OF_PERICENTER":234.6106,"MEAN_ANOMALY":125.4934,"EPHEMERIS_TYPE":0,"CLASSIFICATION_TYPE":"U","NORAD_CAT_ID":63303,"ELEMENT_SET_NO":999,"REV_AT_EPOCH":5252,"BSTAR":0.00048236611,"MEAN_MOTION_DOT":3.002e-5,"MEAN_MOTION_DDOT":0},{"OBJECT_NAME":"FENGYUN 1C DEB","OBJECT_ID":"1999-025DYY","EPOCH":"2026-03-05T04:36:21.516480","MEAN_MOTION":14.38220926,"ECCENTRICITY":0.01519576,"INCLINATION":98.3039,"RA_OF_ASC_NODE":48.797,"ARG_OF_PERICENTER":104.4717,"MEAN_ANOMALY":257.3386,"EPHEMERIS_TYPE":0,"CLASSIFICATION_TYPE":"U","NORAD_CAT_ID":36678,"ELEMENT_SET_NO":999,"REV_AT_EPOCH":66174,"BSTAR":0.00033755967,"MEAN_MOTION_DOT":1.128e-5,"MEAN_MOTION_DDOT":0}]
